ORBCOMM FM20            
1 25416U 98046D   24362.80638882  .00002804  00000+0  99404-3 0  9997
2 25416  44.9940 272.5018 0000863  17.9854 342.1024 14.36510716379656
ORBCOMM FM16            
1 25417U 98046E   24362.57436430  .00003696  00000+0  12583-2 0  9999
2 25417  44.9934 267.2642 0003332 139.8323 220.2772 14.37931428379545
ORBCOMM FM15            
1 25418U 98046F   24362.44066150  .00003481  00000+0  11956-2 0  9999
2 25418  44.9969 272.5530 0002814 139.9550 220.1506 14.37613242379529
ORBCOMM FM14            
1 25419U 98046G   24362.22013881  .00003415  00000+0  11669-2 0  9997
2 25419  44.9956 272.2885 0001962 116.8147 243.2902 14.37905153379458
ORBCOMM FM13            
1 25420U 98046H   24362.75170237  .00003162  00000+0  11068-2 0  9998
2 25420  44.9973 276.1943 0003915 123.9708 236.1512 14.36863789379702
ORBCOMM FM21            
1 25475U 98053A   24362.44657574  .00002981  00000+0  10509-2 0  9993
2 25475  45.0094   2.4075 0001463 311.4052  48.6670 14.36646381372549
ORBCOMM FM22            
1 25476U 98053B   24362.45781178  .00003806  00000+0  13064-2 0  9999
2 25476  45.0085 358.4674 0001757  22.6474 337.4452 14.37479565372551
ORBCOMM FM23            
1 25477U 98053C   24362.53460480  .00003360  00000+0  11760-2 0  9995
2 25477  45.0091   4.3110 0001337 352.4671   7.6157 14.36754772372708
