<?xml version="1.0" encoding="UTF-8"?>
<ndm xmlns:xsi="http://www.w3.org/2001/XMLSchema-instance" xsi:noNamespaceSchemaLocation="https://sanaregistry.org/r/ndmxml_unqualified/ndmxml-2.0.0-master-2.0.xsd">
<omm id="CCSDS_OMM_VERS" version="2.0">
<header><CREATION_DATE/><ORIGINATOR/></header><body><segment><metadata><OBJECT_NAME>ORBCOMM FM20</OBJECT_NAME><OBJECT_ID>1998-046D</OBJECT_ID><CENTER_NAME>EARTH</CENTER_NAME><REF_FRAME>TEME</REF_FRAME><TIME_SYSTEM>UTC</TIME_SYSTEM><MEAN_ELEMENT_THEORY>SGP4</MEAN_ELEMENT_THEORY></metadata><data><meanElements><EPOCH>2024-12-27T19:21:11.994048</EPOCH><MEAN_MOTION>14.36510716</MEAN_MOTION><ECCENTRICITY>.0000863</ECCENTRICITY><INCLINATION>44.9940</INCLINATION><RA_OF_ASC_NODE>272.5018</RA_OF_ASC_NODE><ARG_OF_PERICENTER>17.9854</ARG_OF_PERICENTER><MEAN_ANOMALY>342.1024</MEAN_ANOMALY></meanElements><tleParameters><EPHEMERIS_TYPE>0</EPHEMERIS_TYPE><CLASSIFICATION_TYPE>U</CLASSIFICATION_TYPE><NORAD_CAT_ID>25416</NORAD_CAT_ID><ELEMENT_SET_NO>999</ELEMENT_SET_NO><REV_AT_EPOCH>37965</REV_AT_EPOCH><BSTAR>.99404E-3</BSTAR><MEAN_MOTION_DOT>.2804E-4</MEAN_MOTION_DOT><MEAN_MOTION_DDOT>0</MEAN_MOTION_DDOT></tleParameters></data></segment></body></omm>
<omm id="CCSDS_OMM_VERS" version="2.0">
<header><CREATION_DATE/><ORIGINATOR/></header><body><segment><metadata><OBJECT_NAME>ORBCOMM FM16</OBJECT_NAME><OBJECT_ID>1998-046E</OBJECT_ID><CENTER_NAME>EARTH</CENTER_NAME><REF_FRAME>TEME</REF_FRAME><TIME_SYSTEM>UTC</TIME_SYSTEM><MEAN_ELEMENT_THEORY>SGP4</MEAN_ELEMENT_THEORY></metadata><data><meanElements><EPOCH>2024-12-27T13:47:05.075520</EPOCH><MEAN_MOTION>14.37931428</MEAN_MOTION><ECCENTRICITY>.0003332</ECCENTRICITY><INCLINATION>44.9934</INCLINATION><RA_OF_ASC_NODE>267.2642</RA_OF_ASC_NODE><ARG_OF_PERICENTER>139.8323</ARG_OF_PERICENTER><MEAN_ANOMALY>220.2772</MEAN_ANOMALY></meanElements><tleParameters><EPHEMERIS_TYPE>0</EPHEMERIS_TYPE><CLASSIFICATION_TYPE>U</CLASSIFICATION_TYPE><NORAD_CAT_ID>25417</NORAD_CAT_ID><ELEMENT_SET_NO>999</ELEMENT_SET_NO><REV_AT_EPOCH>37954</REV_AT_EPOCH><BSTAR>.12583E-2</BSTAR><MEAN_MOTION_DOT>.3696E-4</MEAN_MOTION_DOT><MEAN_MOTION_DDOT>0</MEAN_MOTION_DDOT></tleParameters></data></segment></body></omm>
<omm id="CCSDS_OMM_VERS" version="2.0">
<header><CREATION_DATE/><ORIGINATOR/></header><body><segment><metadata><OBJECT_NAME>ORBCOMM FM15</OBJECT_NAME><OBJECT_ID>1998-046F</OBJECT_ID><CENTER_NAME>EARTH</CENTER_NAME><REF_FRAME>TEME</REF_FRAME><TIME_SYSTEM>UTC</TIME_SYSTEM><MEAN_ELEMENT_THEORY>SGP4</MEAN_ELEMENT_THEORY></metadata><data><meanElements><EPOCH>2024-12-27T10:34:33.153600</EPOCH><MEAN_MOTION>14.37613242</MEAN_MOTION><ECCENTRICITY>.0002814</ECCENTRICITY><INCLINATION>44.9969</INCLINATION><RA_OF_ASC_NODE>272.5530</RA_OF_ASC_NODE><ARG_OF_PERICENTER>139.9550</ARG_OF_PERICENTER><MEAN_ANOMALY>220.1506</MEAN_ANOMALY></meanElements><tleParameters><EPHEMERIS_TYPE>0</EPHEMERIS_TYPE><CLASSIFICATION_TYPE>U</CLASSIFICATION_TYPE><NORAD_CAT_ID>25418</NORAD_CAT_ID><ELEMENT_SET_NO>999</ELEMENT_SET_NO><REV_AT_EPOCH>37952</REV_AT_EPOCH><BSTAR>.11956E-2</BSTAR><MEAN_MOTION_DOT>.3481E-4</MEAN_MOTION_DOT><MEAN_MOTION_DDOT>0</MEAN_MOTION_DDOT></tleParameters></data></segment></body></omm>
<omm id="CCSDS_OMM_VERS" version="2.0">
<header><CREATION_DATE/><ORIGINATOR/></header><body><segment><metadata><OBJECT_NAME>ORBCOMM FM14</OBJECT_NAME><OBJECT_ID>1998-046G</OBJECT_ID><CENTER_NAME>EARTH</CENTER_NAME><REF_FRAME>TEME</REF_FRAME><TIME_SYSTEM>UTC</TIME_SYSTEM><MEAN_ELEMENT_THEORY>SGP4</MEAN_ELEMENT_THEORY></metadata><data><meanElements><EPOCH>2024-12-27T05:16:59.993184</EPOCH><MEAN_MOTION>14.37905153</MEAN_MOTION><ECCENTRICITY>.0001962</ECCENTRICITY><INCLINATION>44.9956</INCLINATION><RA_OF_ASC_NODE>272.2885</RA_OF_ASC_NODE><ARG_OF_PERICENTER>116.8147</ARG_OF_PERICENTER><MEAN_ANOMALY>243.2902</MEAN_ANOMALY></meanElements><tleParameters><EPHEMERIS_TYPE>0</EPHEMERIS_TYPE><CLASSIFICATION_TYPE>U</CLASSIFICATION_TYPE><NORAD_CAT_ID>25419</NORAD_CAT_ID><ELEMENT_SET_NO>999</ELEMENT_SET_NO><REV_AT_EPOCH>37945</REV_AT_EPOCH><BSTAR>.11669E-2</BSTAR><MEAN_MOTION_DOT>.3415E-4</MEAN_MOTION_DOT><MEAN_MOTION_DDOT>0</MEAN_MOTION_DDOT></tleParameters></data></segment></body></omm>
<omm id="CCSDS_OMM_VERS" version="2.0">
<header><CREATION_DATE/><ORIGINATOR/></header><body><segment><metadata><OBJECT_NAME>ORBCOMM FM13</OBJECT_NAME><OBJECT_ID>1998-046H</OBJECT_ID><CENTER_NAME>EARTH</CENTER_NAME><REF_FRAME>TEME</REF_FRAME><TIME_SYSTEM>UTC</TIME_SYSTEM><MEAN_ELEMENT_THEORY>SGP4</MEAN_ELEMENT_THEORY></metadata><data><meanElements><EPOCH>2024-12-27T18:02:27.084768</EPOCH><MEAN_MOTION>14.36863789</MEAN_MOTION><ECCENTRICITY>.0003915</ECCENTRICITY><INCLINATION>44.9973</INCLINATION><RA_OF_ASC_NODE>276.1943</RA_OF_ASC_NODE><ARG_OF_PERICENTER>123.9708</ARG_OF_PERICENTER><MEAN_ANOMALY>236.1512</MEAN_ANOMALY></meanElements><tleParameters><EPHEMERIS_TYPE>0</EPHEMERIS_TYPE><CLASSIFICATION_TYPE>U</CLASSIFICATION_TYPE><NORAD_CAT_ID>25420</NORAD_CAT_ID><ELEMENT_SET_NO>999</ELEMENT_SET_NO><REV_AT_EPOCH>37970</REV_AT_EPOCH><BSTAR>.11068E-2</BSTAR><MEAN_MOTION_DOT>.3162E-4</MEAN_MOTION_DOT><MEAN_MOTION_DDOT>0</MEAN_MOTION_DDOT></tleParameters></data></segment></body></omm>
<omm id="CCSDS_OMM_VERS" version="2.0">
<header><CREATION_DATE/><ORIGINATOR/></header><body><segment><metadata><OBJECT_NAME>ORBCOMM FM21</OBJECT_NAME><OBJECT_ID>1998-053A</OBJECT_ID><CENTER_NAME>EARTH</CENTER_NAME><REF_FRAME>TEME</REF_FRAME><TIME_SYSTEM>UTC</TIME_SYSTEM><MEAN_ELEMENT_THEORY>SGP4</MEAN_ELEMENT_THEORY></metadata><data><meanElements><EPOCH>2024-12-27T10:43:04.143936</EPOCH><MEAN_MOTION>14.36646381</MEAN_MOTION><ECCENTRICITY>.0001463</ECCENTRICITY><INCLINATION>45.0094</INCLINATION><RA_OF_ASC_NODE>2.4075</RA_OF_ASC_NODE><ARG_OF_PERICENTER>311.4052</ARG_OF_PERICENTER><MEAN_ANOMALY>48.6670</MEAN_ANOMALY></meanElements><tleParameters><EPHEMERIS_TYPE>0</EPHEMERIS_TYPE><CLASSIFICATION_TYPE>U</CLASSIFICATION_TYPE><NORAD_CAT_ID>25475</NORAD_CAT_ID><ELEMENT_SET_NO>999</ELEMENT_SET_NO><REV_AT_EPOCH>37254</REV_AT_EPOCH><BSTAR>.10509E-2</BSTAR><MEAN_MOTION_DOT>.2981E-4</MEAN_MOTION_DOT><MEAN_MOTION_DDOT>0</MEAN_MOTION_DDOT></tleParameters></data></segment></body></omm>
<omm id="CCSDS_OMM_VERS" version="2.0">
<header><CREATION_DATE/><ORIGINATOR/></header><body><segment><metadata><OBJECT_NAME>ORBCOMM FM22</OBJECT_NAME><OBJECT_ID>1998-053B</OBJECT_ID><CENTER_NAME>EARTH</CENTER_NAME><REF_FRAME>TEME</REF_FRAME><TIME_SYSTEM>UTC</TIME_SYSTEM><MEAN_ELEMENT_THEORY>SGP4</MEAN_ELEMENT_THEORY></metadata><data><meanElements><EPOCH>2024-12-27T10:59:14.937792</EPOCH><MEAN_MOTION>14.37479565</MEAN_MOTION><ECCENTRICITY>.0001757</ECCENTRICITY><INCLINATION>45.0085</INCLINATION><RA_OF_ASC_NODE>358.4674</RA_OF_ASC_NODE><ARG_OF_PERICENTER>22.6474</ARG_OF_PERICENTER><MEAN_ANOMALY>337.4452</MEAN_ANOMALY></meanElements><tleParameters><EPHEMERIS_TYPE>0</EPHEMERIS_TYPE><CLASSIFICATION_TYPE>U</CLASSIFICATION_TYPE><NORAD_CAT_ID>25476</NORAD_CAT_ID><ELEMENT_SET_NO>999</ELEMENT_SET_NO><REV_AT_EPOCH>37255</REV_AT_EPOCH><BSTAR>.13064E-2</BSTAR><MEAN_MOTION_DOT>.3806E-4</MEAN_MOTION_DOT><MEAN_MOTION_DDOT>0</MEAN_MOTION_DDOT></tleParameters></data></segment></body></omm>
<omm id="CCSDS_OMM_VERS" version="2.0">
<header><CREATION_DATE/><ORIGINATOR/></header><body><segment><metadata><OBJECT_NAME>ORBCOMM FM23</OBJECT_NAME><OBJECT_ID>1998-053C</OBJECT_ID><CENTER_NAME>EARTH</CENTER_NAME><REF_FRAME>TEME</REF_FRAME><TIME_SYSTEM>UTC</TIME_SYSTEM><MEAN_ELEMENT_THEORY>SGP4</MEAN_ELEMENT_THEORY></metadata><data><meanElements><EPOCH>2024-12-27T12:49:49.854720</EPOCH><MEAN_MOTION>14.36754772</MEAN_MOTION><ECCENTRICITY>.0001337</ECCENTRICITY><INCLINATION>45.0091</INCLINATION><RA_OF_ASC_NODE>4.3110</RA_OF_ASC_NODE><ARG_OF_PERICENTER>352.4671</ARG_OF_PERICENTER><MEAN_ANOMALY>7.6157</MEAN_ANOMALY></meanElements><tleParameters><EPHEMERIS_TYPE>0</EPHEMERIS_TYPE><CLASSIFICATION_TYPE>U</CLASSIFICATION_TYPE><NORAD_CAT_ID>25477</NORAD_CAT_ID><ELEMENT_SET_NO>999</ELEMENT_SET_NO><REV_AT_EPOCH>37270</REV_AT_EPOCH><BSTAR>.1176E-2</BSTAR><MEAN_MOTION_DOT>.336E-4</MEAN_MOTION_DOT><MEAN_MOTION_DDOT>0</MEAN_MOTION_DDOT></tleParameters></data></segment></body></omm>

</ndm>
